CALSPHERE 1             
1 00900U 64063C   22091.54189866  .00000692  00000+0  73013-3 0  9992
2 00900  90.1751  39.4953 0024667 253.9552 159.1040 13.73726003860100
CALSPHERE 2             
1 00902U 64063E   22091.62251145  .00000053  00000+0  67006-4 0  9990
2 00902  90.1882  42.5182 0018974  17.0251 157.8160 13.52709714648384
LCS 1                   
1 01361U 65034C   22091.47462046 -.00000013  00000+0 -27879-2 0  9996
2 01361  32.1385 228.0688 0013661 324.1044  35.8535  9.89301134 57609
TEMPSAT 1               
1 01512U 65065E   22091.61467601  .00000042  00000+0  67140-4 0  9993
2 01512  89.9116 219.2939 0068365 245.5671 124.8192 13.33447407755132
CALSPHERE 4A            
1 01520U 65065H   22091.58897682  .00000118  00000+0  20918-3 0  9999
2 01520  89.9945 130.2128 0071493 119.5250 358.0549 13.35876766757395
OPS 5712 (P/L 160)      
1 02826U 67053A   22091.50197328  .00003634  00000+0  94911-3 0  9990
2 02826  69.9266 109.5883 0002821 125.0204 235.1194 14.50186793841573
OPS 5712 (P/L 153)      
1 02874U 67053H   22091.56531154  .00000066  00000+0  86567-4 0  9993
2 02874  69.9738 169.8335 0006189  10.2627 349.8604 13.96394243792097
SURCAL 150B             
1 02909U 67053J   22091.78720486  .00007067  00000+0  13773-2 0  9999
2 02909  69.9465 102.0703 0003286 192.1417 167.9645 14.63379905852895
RIGIDSPHERE 2 (LCS 4)   
1 05398U 71067E   22091.59519075  .00000826  00000+0  28325-3 0  9999
2 05398  87.6245  44.1721 0060903 279.4983  79.9334 14.34155406653246
COSMOS 2493 (SKRL-756 1)
1 39490U 13078A   22091.85678724  .00001896  00000+0  19781-3 0  9997
2 39490  82.4163 307.5899 0017158 356.1320   3.9762 14.89162321448622
COSMOS 2494 (SKRL-756 2)
1 39491U 13078B   22091.83842440  .00002018  00000+0  20307-3 0  9997
2 39491  82.4157 301.5518 0021159 331.4106  28.5950 14.90585005448927